I-INSPIRE II            
1 42731U 98067ML  18094.38946833  .00022619  00000-0  19305-3 0  9994
2 42731  51.6365  10.1240 0003938 249.2496 110.8080 15.69413881 48840
POLYITAN-2-SAU          
1 42732U 98067MM  18094.40240750  .00017294  00000-0  16131-3 0  9990
2 42732  51.6372  11.7294 0004317 250.6245 109.4285 15.67432725 48820
SNUSAT-1B               
1 42733U 98067MN  18094.17369222  .00021290  00000-0  20578-3 0  9992
2 42733  51.6374  13.9621 0004444 255.9248 104.1254 15.66380960 48777
EXALTA-1                
1 42734U 98067MP  18094.32861468  .00026585  00000-0  22414-3 0  9992
2 42734  51.6351  10.4570 0004309 283.2766  76.7750 15.69605821 48782
AOXIANG-1               
1 42735U 98067MQ  18094.32293025  .00014340  00000-0  15145-3 0  9990
2 42735  51.6373  14.9624 0004833 315.2501  44.8103 15.64472294 50143
BEEAGLESAT              
1 42736U 98067MR  18094.37349599  .00015398  00000-0  15562-3 0  9991
2 42736  51.6371  13.7939 0004460 314.4369  45.6261 15.65524425 48851
ATLANTIS                
1 42737U 98067MS  18087.11387049  .13966215  12356-4  93055-3 0  9999
2 42737  51.6095  27.8979 0006293 234.7874 125.2564 16.40626348 47903
PROGRESS-MS 07          
1 42971U 17065A   18094.52774306  .00030994  00000-0  48926-3 0  9995
2 42971  51.6423  26.1273 0037916 254.6257 102.2210 15.52405828 26774
SIMPL                   
1 42983U 98067NF  18094.43172664  .00003241  00000-0  53124-4 0  9990
2 42983  51.6444  25.2601 0003218 289.9698 172.9960 15.55726214 24731
ECAMSAT                 
1 43019U 98067NG  18094.20041513  .00004316  00000-0  67122-4 0  9991
2 43019  51.6412  26.1884 0004280 254.2879 105.7640 15.56262731107029
ASTERIA                 
1 43020U 98067NH  18094.33939301  .00010347  00000-0  14413-3 0  9993
2 43020  51.6419  24.8756 0001588 244.7129 115.3698 15.57561685 20970
DELLINGR (RBLE)         
1 43021U 98067NJ  18094.32189738  .00005731  00000-0  86084-4 0  9999
2 43021  51.6408  25.5014 0001494 236.6503 123.4346 15.56505014 20968
TECHEDSAT 6             
1 43026U 98067NK  18094.38656699  .00128371  00000-0  83067-3 0  9998
2 43026  51.6332  17.6361 0003571 168.6757 191.4324 15.75146952 20974
OSIRIS-3U               
1 43027U 98067NL  18094.40581596  .00018960  00000-0  23142-3 0  9995
2 43027  51.6396  23.0598 0002444 204.8542 155.2334 15.60484898 20888
SOYUZ-MS 07             
1 43063U 17081A   18093.82457574  .00001750  00000-0  33577-4 0  9998
2 43063  51.6428  29.4260 0001506 299.7877 175.5077 15.54188014 16701
PROGRESS-MS 08          
1 43211U 18019A   18093.82457574  .00001750  00000-0  33577-4 0  9995
2 43211  51.6428  29.4260 0001506 299.7877 175.5077 15.54188014  7706
SOYUZ-MS 08             
1 43238U 18026A   18093.82457574  .00001750  00000-0  33577-4 0  9992
2 43238  51.6428  29.4260 0001506 299.7877 175.5077 15.54188014  2047
